{
  "type": "FeatureCollection",
  "features": [
    {
      "type": "Feature",
      "properties": {
        "norad_id": 43823,
        "name": "GEO-KOMPSAT-2A",
        "group": "weather",
        "lat": -0.021667890480566006,
        "lon": -57.20844590168254,
        "alt_km": 35787.910141142835,
        "timestamp": "2025-12-20T05:41:49.661308+00:00",
        "meta_object_name": "GEO-KOMPSAT-2A",
        "meta_object_id": "2018-100A",
        "meta_epoch": "2025-12-19T20:43:16.565952",
        "meta_mean_motion": 1.00271613,
        "meta_eccentricity": 4.298e-05,
        "meta_inclination": 0.0523,
        "meta_ra_of_asc_node": 147.9601,
        "meta_arg_of_pericenter": 316.2542,
        "meta_mean_anomaly": 63.5825,
        "meta_ephemeris_type": 0,
        "meta_classification_type": "U",
        "meta_norad_cat_id": 43823,
        "meta_element_set_no": 999,
        "meta_rev_at_epoch": 2583,
        "meta_bstar": 0,
        "meta_mean_motion_dot": -3.19e-06,
        "meta_mean_motion_ddot": 0,
        "tle_line1": "1 43823U 18100A   25353.86338618 -.00000319  00000+0  00000+0 0  9993",
        "tle_line2": "2 43823   0.0523 147.9601 0000429 316.2542  63.5825  1.00271613 25836"
      },
      "geometry": {
        "type": "Point",
        "coordinates": [
          -57.20844590168254,
          -0.021667890480566006
        ]
      }
    },
    {
      "type": "Feature",
      "properties": {
        "norad_id": 44387,
        "name": "METEOR-M2 2",
        "group": "weather",
        "lat": -78.5743048535724,
        "lon": 24.868871784713736,
        "alt_km": 819.1033366481661,
        "timestamp": "2025-12-20T05:41:49.661319+00:00",
        "meta_object_name": "METEOR-M2 2",
        "meta_object_id": "2019-038A",
        "meta_epoch": "2025-12-19T21:39:20.047104",
        "meta_mean_motion": 14.24294229,
        "meta_eccentricity": 0.00015872,
        "meta_inclination": 98.897,
        "meta_ra_of_asc_node": 333.7188,
        "meta_arg_of_pericenter": 134.0679,
        "meta_mean_anomaly": 226.063,
        "meta_ephemeris_type": 0,
        "meta_classification_type": "U",
        "meta_norad_cat_id": 44387,
        "meta_element_set_no": 999,
        "meta_rev_at_epoch": 33577,
        "meta_bstar": -3.22808e-06,
        "meta_mean_motion_dot": -5.3e-07,
        "meta_mean_motion_ddot": 0,
        "tle_line1": "1 44387U 19038A   25353.90231536 -.00000053  00000+0 -32281-5 0  9994",
        "tle_line2": "2 44387  98.8970 333.7188 0001587 134.0679 226.0630 14.24294229335776"
      },
      "geometry": {
        "type": "Point",
        "coordinates": [
          24.868871784713736,
          -78.5743048535724
        ]
      }
    },
    {
      "type": "Feature",
      "properties": {
        "norad_id": 47719,
        "name": "ARKTIKA-M 1",
        "group": "weather",
        "lat": 62.045042263273146,
        "lon": 155.22884599637248,
        "alt_km": 38349.479130492,
        "timestamp": "2025-12-20T05:41:49.661333+00:00",
        "meta_object_name": "ARKTIKA-M 1",
        "meta_object_id": "2021-016A",
        "meta_epoch": "2025-12-19T01:20:05.580096",
        "meta_mean_motion": 2.00630571,
        "meta_eccentricity": 0.7207407,
        "meta_inclination": 63.1758,
        "meta_ra_of_asc_node": 83.1314,
        "meta_arg_of_pericenter": 269.1504,
        "meta_mean_anomaly": 15.5629,
        "meta_ephemeris_type": 0,
        "meta_classification_type": "U",
        "meta_norad_cat_id": 47719,
        "meta_element_set_no": 999,
        "meta_rev_at_epoch": 3517,
        "meta_bstar": 0,
        "meta_mean_motion_dot": -1.23e-06,
        "meta_mean_motion_ddot": 0,
        "tle_line1": "1 47719U 21016A   25353.05562014 -.00000123  00000+0  00000+0 0  9994",
        "tle_line2": "2 47719  63.1758  83.1314 7207407 269.1504  15.5629  2.00630571 35172"
      },
      "geometry": {
        "type": "Point",
        "coordinates": [
          155.22884599637248,
          62.045042263273146
        ]
      }
    },
    {
      "type": "Feature",
      "properties": {
        "norad_id": 49008,
        "name": "FENGYUN 3E",
        "group": "weather",
        "lat": 61.272606291677654,
        "lon": -169.01699340043754,
        "alt_km": 819.8202020345607,
        "timestamp": "2025-12-20T05:41:49.661352+00:00",
        "meta_object_name": "FENGYUN 3E",
        "meta_object_id": "2021-062A",
        "meta_epoch": "2025-12-19T22:22:51.775680",
        "meta_mean_motion": 14.19880319,
        "meta_eccentricity": 7.353e-05,
        "meta_inclination": 98.7469,
        "meta_ra_of_asc_node": 354.3685,
        "meta_arg_of_pericenter": 214.4486,
        "meta_mean_anomaly": 145.6643,
        "meta_ephemeris_type": 0,
        "meta_classification_type": "U",
        "meta_norad_cat_id": 49008,
        "meta_element_set_no": 999,
        "meta_rev_at_epoch": 23114,
        "meta_bstar": -1.0741e-05,
        "meta_mean_motion_dot": -6.7e-07,
        "meta_mean_motion_ddot": 0,
        "tle_line1": "1 49008U 21062A   25353.93254370 -.00000067  00000+0 -10741-4 0  9994",
        "tle_line2": "2 49008  98.7469 354.3685 0000735 214.4486 145.6643 14.19880319231148"
      },
      "geometry": {
        "type": "Point",
        "coordinates": [
          -169.01699340043754,
          61.272606291677654
        ]
      }
    },
    {
      "type": "Feature",
      "properties": {
        "norad_id": 51850,
        "name": "GOES 18",
        "group": "weather",
        "lat": -0.0024046410738383793,
        "lon": 37.570987435623074,
        "alt_km": 35786.126629103914,
        "timestamp": "2025-12-20T05:41:49.661365+00:00",
        "meta_object_name": "GOES 18",
        "meta_object_id": "2022-021A",
        "meta_epoch": "2025-12-19T13:06:13.924800",
        "meta_mean_motion": 1.00280535,
        "meta_eccentricity": 0.0001032,
        "meta_inclination": 0.0096,
        "meta_ra_of_asc_node": 238.6381,
        "meta_arg_of_pericenter": 33.0454,
        "meta_mean_anomaly": 236.2852,
        "meta_ephemeris_type": 0,
        "meta_classification_type": "U",
        "meta_norad_cat_id": 51850,
        "meta_element_set_no": 999,
        "meta_rev_at_epoch": 479,
        "meta_bstar": 0,
        "meta_mean_motion_dot": 1.2e-06,
        "meta_mean_motion_ddot": 0,
        "tle_line1": "1 51850U 22021A   25353.54599450  .00000120  00000+0  00000+0 0  9996",
        "tle_line2": "2 51850   0.0096 238.6381 0001032  33.0454 236.2852  1.00280535  4794"
      },
      "geometry": {
        "type": "Point",
        "coordinates": [
          37.570987435623074,
          -0.0024046410738383793
        ]
      }
    },
    {
      "type": "Feature",
      "properties": {
        "norad_id": 54234,
        "name": "NOAA 21 (JPSS-2)",
        "group": "weather",
        "lat": 64.2338577639363,
        "lon": 129.0525744539456,
        "alt_km": 820.6914429766584,
        "timestamp": "2025-12-20T05:41:49.661376+00:00",
        "meta_object_name": "NOAA 21 (JPSS-2)",
        "meta_object_id": "2022-150A",
        "meta_epoch": "2025-12-19T20:42:09.018432",
        "meta_mean_motion": 14.19526009,
        "meta_eccentricity": 0.00019115,
        "meta_inclination": 98.7471,
        "meta_ra_of_asc_node": 290.0822,
        "meta_arg_of_pericenter": 23.8946,
        "meta_mean_anomaly": 336.2319,
        "meta_ephemeris_type": 0,
        "meta_classification_type": "U",
        "meta_norad_cat_id": 54234,
        "meta_element_set_no": 999,
        "meta_rev_at_epoch": 16110,
        "meta_bstar": 4.1646167e-05,
        "meta_mean_motion_dot": 4.4e-07,
        "meta_mean_motion_ddot": 0,
        "tle_line1": "1 54234U 22150A   25353.86260438  .00000044  00000+0  41646-4 0  9995",
        "tle_line2": "2 54234  98.7471 290.0822 0001911  23.8946 336.2319 14.19526009161106"
      },
      "geometry": {
        "type": "Point",
        "coordinates": [
          129.0525744539456,
          64.2338577639363
        ]
      }
    },
    {
      "type": "Feature",
      "properties": {
        "norad_id": 54743,
        "name": "METEOSAT-12 (MTG-I1)",
        "group": "weather",
        "lat": 0.3530436744108258,
        "lon": 174.20052206428656,
        "alt_km": 35786.366689490584,
        "timestamp": "2025-12-20T05:41:49.661388+00:00",
        "meta_object_name": "METEOSAT-12 (MTG-I1)",
        "meta_object_id": "2022-170C",
        "meta_epoch": "2025-12-19T06:24:51.136128",
        "meta_mean_motion": 1.00270426,
        "meta_eccentricity": 0.0001481,
        "meta_inclination": 0.6935,
        "meta_ra_of_asc_node": 24.6802,
        "meta_arg_of_pericenter": 239.4026,
        "meta_mean_anomaly": 279.9464,
        "meta_ephemeris_type": 0,
        "meta_classification_type": "U",
        "meta_norad_cat_id": 54743,
        "meta_element_set_no": 999,
        "meta_rev_at_epoch": 1117,
        "meta_bstar": 0,
        "meta_mean_motion_dot": 1.7e-07,
        "meta_mean_motion_ddot": 0,
        "tle_line1": "1 54743U 22170C   25353.26725852  .00000017  00000+0  00000+0 0  9996",
        "tle_line2": "2 54743   0.6935  24.6802 0001481 239.4026 279.9464  1.00270426 11173"
      },
      "geometry": {
        "type": "Point",
        "coordinates": [
          174.20052206428656,
          0.3530436744108258
        ]
      }
    }
  ]
}